ONEWEB-0531             
1 54146U 22138AK  26005.27965038 -.00000099  00000+0 -27492-3 0  9995
2 54146  87.9228 306.9301 0001475 110.3560 249.7732 13.20770444157800
ONEWEB-0535             
1 54147U 22138AL  26005.30065882  .00000029  00000+0  40606-4 0  9992
2 54147  87.9226 337.3585 0001906  92.8902 267.2449 13.19725443155359
ONEWEB-0536             
1 54148U 22138AM  26005.26702394  .00000102  00000+0  21885-3 0  9993
2 54148  87.9217 306.9736 0001353 113.9982 246.1293 13.20772069157790
ONEWEB-0527             
1 54642U 22166A   26005.19636388  .00000208  00000+0  47170-3 0  9996
2 54642  87.9224 276.5118 0001549  73.9861 286.1443 13.21826681150000
ONEWEB-0528             
1 54643U 22166B   26005.27865258  .00000050  00000+0  90471-4 0  9994
2 54643  87.9224 276.4990 0001579  71.2799 288.8507 13.21826593150026
ONEWEB-0539             
1 54644U 22166C   26005.24078286  .00000180  00000+0  40533-3 0  9996
2 54644  87.9227 276.4720 0001804  71.4565 288.6765 13.21823618150013
ONEWEB-0540             
1 54645U 22166D   26005.24752037  .00000125  00000+0  27172-3 0  9993
2 54645  87.9224 276.5086 0001744  77.4615 282.6714 13.21826946150006
ONEWEB-0542             
1 54646U 22166E   26005.25066936 -.00000124  00000+0 -33287-3 0  9996
2 54646  87.9222 276.4656 0002008  75.8442 284.2915 13.21824976150014
